[{"OBJECT_NAME":"STARLINK-5806","OBJECT_ID":"2023-042X","EPOCH":"2026-03-09T08:27:08.919648","MEAN_MOTION":15.02530884,"ECCENTRICITY":0.00010224,"INCLINATION":43.0048,"RA_OF_ASC_NODE":57.5951,"ARG_OF_PERICENTER":261.3003,"MEAN_ANOMALY":98.7723,"EPHEMERIS_TYPE":0,"CLASSIFICATION_TYPE":"U","NORAD_CAT_ID":56007,"ELEMENT_SET_NO":999,"REV_AT_EPOCH":16286,"BSTAR":-1.168786e-5,"MEAN_MOTION_DOT":-3.61e-6,"MEAN_MOTION_DDOT":0},{"OBJECT_NAME":"CZ-6A DEB","OBJECT_ID":"2024-140YT","EPOCH":"2026-03-09T15:08:50.355168","MEAN_MOTION":14.80324244,"ECCENTRICITY":0.0130576,"INCLINATION":89.1165,"RA_OF_ASC_NODE":289.1796,"ARG_OF_PERICENTER":182.674,"MEAN_ANOMALY":177.3803,"EPHEMERIS_TYPE":0,"CLASSIFICATION_TYPE":"U","NORAD_CAT_ID":61426,"ELEMENT_SET_NO":999,"REV_AT_EPOCH":8306,"BSTAR":0.0013152,"MEAN_MOTION_DOT":0.00011629,"MEAN_MOTION_DDOT":0}]
